IRIDIUM 57              
1 25273U 98019B   24266.05024035  .00000860  00000+0  29301-3 0  9996
2 25273  86.3904 257.5242 0002289  90.8025 269.3434 14.35410494386523
IRIDIUM 63              
1 25286U 98021B   24265.75720800  .00001164  00000+0  39419-3 0  9991
2 25286  86.4053 194.5968 0002576  82.6694 277.4796 14.36013745385583
IRIDIUM 69              
1 25319U 98026A   24265.33253794  .00001797  00000+0  56145-3 0  9997
2 25319  86.4024 208.8541 0002897 134.8108 225.3327 14.40278025384355
IRIDIUM 71              
1 25320U 98026B   24265.58984802  .00001220  00000+0  37711-3 0  9996
2 25320  86.4033 203.4924 0000588 136.5261 223.5984 14.40578993384915
IRIDIUM 73              
1 25344U 98032C   24265.45397786  .00001580  00000+0  39561-3 0  9998
2 25344  86.4481 160.8760 0002386  98.4230 261.7245 14.50901568391586
IRIDIUM 82              
1 25467U 98051A   24266.20777181  .00017820  00000+0  80826-3 0  9994
2 25467  86.3724 239.5679 0115364 220.8388 138.4167 15.14829920383159
