<?xml version="1.0" encoding="UTF-8"?>
<ndm xmlns:xsi="http://www.w3.org/2001/XMLSchema-instance" xsi:noNamespaceSchemaLocation="https://sanaregistry.org/r/ndmxml_unqualified/ndmxml-2.0.0-master-2.0.xsd">
<omm id="CCSDS_OMM_VERS" version="2.0">
<header><CREATION_DATE/><ORIGINATOR/></header><body><segment><metadata><OBJECT_NAME>IRIDIUM 57</OBJECT_NAME><OBJECT_ID>1998-019B</OBJECT_ID><CENTER_NAME>EARTH</CENTER_NAME><REF_FRAME>TEME</REF_FRAME><TIME_SYSTEM>UTC</TIME_SYSTEM><MEAN_ELEMENT_THEORY>SGP4</MEAN_ELEMENT_THEORY></metadata><data><meanElements><EPOCH>2024-09-22T01:12:20.766240</EPOCH><MEAN_MOTION>14.35410494</MEAN_MOTION><ECCENTRICITY>.0002289</ECCENTRICITY><INCLINATION>86.3904</INCLINATION><RA_OF_ASC_NODE>257.5242</RA_OF_ASC_NODE><ARG_OF_PERICENTER>90.8025</ARG_OF_PERICENTER><MEAN_ANOMALY>269.3434</MEAN_ANOMALY></meanElements><tleParameters><EPHEMERIS_TYPE>0</EPHEMERIS_TYPE><CLASSIFICATION_TYPE>U</CLASSIFICATION_TYPE><NORAD_CAT_ID>25273</NORAD_CAT_ID><ELEMENT_SET_NO>999</ELEMENT_SET_NO><REV_AT_EPOCH>38652</REV_AT_EPOCH><BSTAR>.29301E-3</BSTAR><MEAN_MOTION_DOT>.86E-5</MEAN_MOTION_DOT><MEAN_MOTION_DDOT>0</MEAN_MOTION_DDOT></tleParameters></data></segment></body></omm>
<omm id="CCSDS_OMM_VERS" version="2.0">
<header><CREATION_DATE/><ORIGINATOR/></header><body><segment><metadata><OBJECT_NAME>IRIDIUM 63</OBJECT_NAME><OBJECT_ID>1998-021B</OBJECT_ID><CENTER_NAME>EARTH</CENTER_NAME><REF_FRAME>TEME</REF_FRAME><TIME_SYSTEM>UTC</TIME_SYSTEM><MEAN_ELEMENT_THEORY>SGP4</MEAN_ELEMENT_THEORY></metadata><data><meanElements><EPOCH>2024-09-21T18:10:22.771200</EPOCH><MEAN_MOTION>14.36013745</MEAN_MOTION><ECCENTRICITY>.0002576</ECCENTRICITY><INCLINATION>86.4053</INCLINATION><RA_OF_ASC_NODE>194.5968</RA_OF_ASC_NODE><ARG_OF_PERICENTER>82.6694</ARG_OF_PERICENTER><MEAN_ANOMALY>277.4796</MEAN_ANOMALY></meanElements><tleParameters><EPHEMERIS_TYPE>0</EPHEMERIS_TYPE><CLASSIFICATION_TYPE>U</CLASSIFICATION_TYPE><NORAD_CAT_ID>25286</NORAD_CAT_ID><ELEMENT_SET_NO>999</ELEMENT_SET_NO><REV_AT_EPOCH>38558</REV_AT_EPOCH><BSTAR>.39419E-3</BSTAR><MEAN_MOTION_DOT>.1164E-4</MEAN_MOTION_DOT><MEAN_MOTION_DDOT>0</MEAN_MOTION_DDOT></tleParameters></data></segment></body></omm>
<omm id="CCSDS_OMM_VERS" version="2.0">
<header><CREATION_DATE/><ORIGINATOR/></header><body><segment><metadata><OBJECT_NAME>IRIDIUM 69</OBJECT_NAME><OBJECT_ID>1998-026A</OBJECT_ID><CENTER_NAME>EARTH</CENTER_NAME><REF_FRAME>TEME</REF_FRAME><TIME_SYSTEM>UTC</TIME_SYSTEM><MEAN_ELEMENT_THEORY>SGP4</MEAN_ELEMENT_THEORY></metadata><data><meanElements><EPOCH>2024-09-21T07:58:51.278016</EPOCH><MEAN_MOTION>14.40278025</MEAN_MOTION><ECCENTRICITY>.0002897</ECCENTRICITY><INCLINATION>86.4024</INCLINATION><RA_OF_ASC_NODE>208.8541</RA_OF_ASC_NODE><ARG_OF_PERICENTER>134.8108</ARG_OF_PERICENTER><MEAN_ANOMALY>225.3327</MEAN_ANOMALY></meanElements><tleParameters><EPHEMERIS_TYPE>0</EPHEMERIS_TYPE><CLASSIFICATION_TYPE>U</CLASSIFICATION_TYPE><NORAD_CAT_ID>25319</NORAD_CAT_ID><ELEMENT_SET_NO>999</ELEMENT_SET_NO><REV_AT_EPOCH>38435</REV_AT_EPOCH><BSTAR>.56145E-3</BSTAR><MEAN_MOTION_DOT>.1797E-4</MEAN_MOTION_DOT><MEAN_MOTION_DDOT>0</MEAN_MOTION_DDOT></tleParameters></data></segment></body></omm>
<omm id="CCSDS_OMM_VERS" version="2.0">
<header><CREATION_DATE/><ORIGINATOR/></header><body><segment><metadata><OBJECT_NAME>IRIDIUM 71</OBJECT_NAME><OBJECT_ID>1998-026B</OBJECT_ID><CENTER_NAME>EARTH</CENTER_NAME><REF_FRAME>TEME</REF_FRAME><TIME_SYSTEM>UTC</TIME_SYSTEM><MEAN_ELEMENT_THEORY>SGP4</MEAN_ELEMENT_THEORY></metadata><data><meanElements><EPOCH>2024-09-21T14:09:22.868928</EPOCH><MEAN_MOTION>14.40578993</MEAN_MOTION><ECCENTRICITY>.0000588</ECCENTRICITY><INCLINATION>86.4033</INCLINATION><RA_OF_ASC_NODE>203.4924</RA_OF_ASC_NODE><ARG_OF_PERICENTER>136.5261</ARG_OF_PERICENTER><MEAN_ANOMALY>223.5984</MEAN_ANOMALY></meanElements><tleParameters><EPHEMERIS_TYPE>0</EPHEMERIS_TYPE><CLASSIFICATION_TYPE>U</CLASSIFICATION_TYPE><NORAD_CAT_ID>25320</NORAD_CAT_ID><ELEMENT_SET_NO>999</ELEMENT_SET_NO><REV_AT_EPOCH>38491</REV_AT_EPOCH><BSTAR>.37711E-3</BSTAR><MEAN_MOTION_DOT>.122E-4</MEAN_MOTION_DOT><MEAN_MOTION_DDOT>0</MEAN_MOTION_DDOT></tleParameters></data></segment></body></omm>
<omm id="CCSDS_OMM_VERS" version="2.0">
<header><CREATION_DATE/><ORIGINATOR/></header><body><segment><metadata><OBJECT_NAME>IRIDIUM 73</OBJECT_NAME><OBJECT_ID>1998-032C</OBJECT_ID><CENTER_NAME>EARTH</CENTER_NAME><REF_FRAME>TEME</REF_FRAME><TIME_SYSTEM>UTC</TIME_SYSTEM><MEAN_ELEMENT_THEORY>SGP4</MEAN_ELEMENT_THEORY></metadata><data><meanElements><EPOCH>2024-09-21T10:53:43.687104</EPOCH><MEAN_MOTION>14.50901568</MEAN_MOTION><ECCENTRICITY>.0002386</ECCENTRICITY><INCLINATION>86.4481</INCLINATION><RA_OF_ASC_NODE>160.8760</RA_OF_ASC_NODE><ARG_OF_PERICENTER>98.4230</ARG_OF_PERICENTER><MEAN_ANOMALY>261.7245</MEAN_ANOMALY></meanElements><tleParameters><EPHEMERIS_TYPE>0</EPHEMERIS_TYPE><CLASSIFICATION_TYPE>U</CLASSIFICATION_TYPE><NORAD_CAT_ID>25344</NORAD_CAT_ID><ELEMENT_SET_NO>999</ELEMENT_SET_NO><REV_AT_EPOCH>39158</REV_AT_EPOCH><BSTAR>.39561E-3</BSTAR><MEAN_MOTION_DOT>.158E-4</MEAN_MOTION_DOT><MEAN_MOTION_DDOT>0</MEAN_MOTION_DDOT></tleParameters></data></segment></body></omm>
<omm id="CCSDS_OMM_VERS" version="2.0">
<header><CREATION_DATE/><ORIGINATOR/></header><body><segment><metadata><OBJECT_NAME>IRIDIUM 82</OBJECT_NAME><OBJECT_ID>1998-051A</OBJECT_ID><CENTER_NAME>EARTH</CENTER_NAME><REF_FRAME>TEME</REF_FRAME><TIME_SYSTEM>UTC</TIME_SYSTEM><MEAN_ELEMENT_THEORY>SGP4</MEAN_ELEMENT_THEORY></metadata><data><meanElements><EPOCH>2024-09-22T04:59:11.484384</EPOCH><MEAN_MOTION>15.14829920</MEAN_MOTION><ECCENTRICITY>.0115364</ECCENTRICITY><INCLINATION>86.3724</INCLINATION><RA_OF_ASC_NODE>239.5679</RA_OF_ASC_NODE><ARG_OF_PERICENTER>220.8388</ARG_OF_PERICENTER><MEAN_ANOMALY>138.4167</MEAN_ANOMALY></meanElements><tleParameters><EPHEMERIS_TYPE>0</EPHEMERIS_TYPE><CLASSIFICATION_TYPE>U</CLASSIFICATION_TYPE><NORAD_CAT_ID>25467</NORAD_CAT_ID><ELEMENT_SET_NO>999</ELEMENT_SET_NO><REV_AT_EPOCH>38315</REV_AT_EPOCH><BSTAR>.80826E-3</BSTAR><MEAN_MOTION_DOT>.1782E-3</MEAN_MOTION_DOT><MEAN_MOTION_DDOT>0</MEAN_MOTION_DDOT></tleParameters></data></segment></body></omm>
</ndm>
